GLOBALSTAR M001         
1 25162U 98008A   24237.92743493 -.00000033  00000+0  49080-3 0  9990
2 25162  52.0029 115.5011 0001946   9.1737   4.0404 12.38192480207017
GLOBALSTAR M004         
1 25163U 98008B   24237.73749976 -.00000054  00000+0  27660-3 0  9995
2 25163  51.9975 238.5335 0002991 355.3849 175.4242 12.63369309224210
GLOBALSTAR M002         
1 25164U 98008C   24237.78297490 -.00000074  00000+0  57283-4 0  9997
2 25164  51.9992 263.3885 0001233 322.5026  37.5708 11.61503288149626
GLOBALSTAR M003         
1 25165U 98008D   24237.84433073  .00000039  00000+0  13749-2 0  9991
2 25165  51.9910 269.2656 0008049  59.8336 111.4758 12.12030123197286
GLOBALSTAR M014         
1 25306U 98023A   24237.88747594 -.00000061  00000+0  30910-3 0  9991
2 25306  51.9814 192.5768 0000566 162.3162 231.4130 11.65470402156626
GLOBALSTAR M006         
1 25307U 98023B   24237.92072910 -.00000064  00000+0  24844-3 0  9992
2 25307  51.9902 233.8947 0003799 291.5932  97.7966 11.58165048182509
GLOBALSTAR M015         
1 25308U 98023C   24237.54387001 -.00000056  00000+0  40296-3 0  9991
2 25308  51.9850 319.7115 0012255 267.1093 194.0227 11.48848986159982
GLOBALSTAR M008         
1 25309U 98023D   24237.64476625 -.00000045  00000+0  39952-3 0  9999
2 25309  51.9999 337.7951 0001964 263.2911 246.4458 12.36047311201174
